[{"OBJECT_NAME":"SNAP-3 JIMI","OBJECT_ID":"2015-058M","EPOCH":"2026-04-25T20:33:14.892768","MEAN_MOTION":15.01706908,"ECCENTRICITY":0.01047833,"INCLINATION":64.7669,"RA_OF_ASC_NODE":25.2708,"ARG_OF_PERICENTER":76.9495,"MEAN_ANOMALY":284.3294,"EPHEMERIS_TYPE":0,"CLASSIFICATION_TYPE":"U","NORAD_CAT_ID":40975,"ELEMENT_SET_NO":999,"REV_AT_EPOCH":10636,"BSTAR":0.00056840143,"MEAN_MOTION_DOT":8.172e-5,"MEAN_MOTION_DDOT":0},{"OBJECT_NAME":"PROPCUBE 1 (FLORA)","OBJECT_ID":"2015-058N","EPOCH":"2026-04-25T16:14:03.066432","MEAN_MOTION":14.88907559,"ECCENTRICITY":0.01292937,"INCLINATION":64.7733,"RA_OF_ASC_NODE":97.9403,"ARG_OF_PERICENTER":81.4628,"MEAN_ANOMALY":280.111,"EPHEMERIS_TYPE":0,"CLASSIFICATION_TYPE":"U","NORAD_CAT_ID":40976,"ELEMENT_SET_NO":999,"REV_AT_EPOCH":10844,"BSTAR":0.0002675667,"MEAN_MOTION_DOT":2.77e-5,"MEAN_MOTION_DDOT":0},{"OBJECT_NAME":"SINOD-D 3","OBJECT_ID":"2015-058P","EPOCH":"2026-04-25T22:55:39.598752","MEAN_MOTION":14.93587318,"ECCENTRICITY":0.01177512,"INCLINATION":64.772,"RA_OF_ASC_NODE":78.8685,"ARG_OF_PERICENTER":78.948,"MEAN_ANOMALY":282.485,"EPHEMERIS_TYPE":0,"CLASSIFICATION_TYPE":"U","NORAD_CAT_ID":40977,"ELEMENT_SET_NO":999,"REV_AT_EPOCH":10695,"BSTAR":0.00044411452,"MEAN_MOTION_DOT":5.213e-5,"MEAN_MOTION_DDOT":0},{"OBJECT_NAME":"HORYU-4","OBJECT_ID":"2016-012D","EPOCH":"2026-04-25T15:18:11.447136","MEAN_MOTION":15.72986907,"ECCENTRICITY":0.00061793,"INCLINATION":30.9888,"RA_OF_ASC_NODE":97.2055,"ARG_OF_PERICENTER":238.5245,"MEAN_ANOMALY":121.4806,"EPHEMERIS_TYPE":0,"CLASSIFICATION_TYPE":"U","NORAD_CAT_ID":41340,"ELEMENT_SET_NO":999,"REV_AT_EPOCH":56248,"BSTAR":0.0008738288,"MEAN_MOTION_DOT":0.00126282,"MEAN_MOTION_DDOT":0},{"OBJECT_NAME":"RAVAN","OBJECT_ID":"2016-067B","EPOCH":"2026-04-25T15:10:59.904192","MEAN_MOTION":15.49983289,"ECCENTRICITY":0.00060618,"INCLINATION":97.9958,"RA_OF_ASC_NODE":359.3278,"ARG_OF_PERICENTER":166.7228,"MEAN_ANOMALY":193.4182,"EPHEMERIS_TYPE":0,"CLASSIFICATION_TYPE":"U","NORAD_CAT_ID":41849,"ELEMENT_SET_NO":999,"REV_AT_EPOCH":51954,"BSTAR":0.00070918595,"MEAN_MOTION_DOT":0.00039788,"MEAN_MOTION_DDOT":0},{"OBJECT_NAME":"CELTEE 1","OBJECT_ID":"2016-067C","EPOCH":"2026-04-25T14:06:36.719136","MEAN_MOTION":15.19148747,"ECCENTRICITY":0.00023818,"INCLINATION":98.0749,"RA_OF_ASC_NODE":338.569,"ARG_OF_PERICENTER":79.5585,"MEAN_ANOMALY":280.5916,"EPHEMERIS_TYPE":0,"CLASSIFICATION_TYPE":"U","NORAD_CAT_ID":41850,"ELEMENT_SET_NO":999,"REV_AT_EPOCH":51789,"BSTAR":0.00024528383,"MEAN_MOTION_DOT":5.078e-5,"MEAN_MOTION_DDOT":0},{"OBJECT_NAME":"OPTICUBE 04","OBJECT_ID":"2016-067D","EPOCH":"2026-04-25T13:55:32.610720","MEAN_MOTION":15.09432689,"ECCENTRICITY":0.00144247,"INCLINATION":98.0758,"RA_OF_ASC_NODE":325.1108,"ARG_OF_PERICENTER":298.1511,"MEAN_ANOMALY":61.8259,"EPHEMERIS_TYPE":0,"CLASSIFICATION_TYPE":"U","NORAD_CAT_ID":41851,"ELEMENT_SET_NO":999,"REV_AT_EPOCH":51723,"BSTAR":0.00013431916,"MEAN_MOTION_DOT":2.081e-5,"MEAN_MOTION_DDOT":0},{"OBJECT_NAME":"AEROCUBE 8D","OBJECT_ID":"2016-067E","EPOCH":"2026-04-25T13:31:56.589888","MEAN_MOTION":15.23643901,"ECCENTRICITY":0.00026287,"INCLINATION":98.0762,"RA_OF_ASC_NODE":341.7426,"ARG_OF_PERICENTER":343.0096,"MEAN_ANOMALY":17.1051,"EPHEMERIS_TYPE":0,"CLASSIFICATION_TYPE":"U","NORAD_CAT_ID":41852,"ELEMENT_SET_NO":999,"REV_AT_EPOCH":51805,"BSTAR":0.00031785321,"MEAN_MOTION_DOT":7.539e-5,"MEAN_MOTION_DDOT":0},{"OBJECT_NAME":"AEROCUBE 8C","OBJECT_ID":"2016-067F","EPOCH":"2026-04-25T14:19:51.741696","MEAN_MOTION":15.23879037,"ECCENTRICITY":0.00040799,"INCLINATION":98.0632,"RA_OF_ASC_NODE":339.075,"ARG_OF_PERICENTER":232.7076,"MEAN_ANOMALY":127.3787,"EPHEMERIS_TYPE":0,"CLASSIFICATION_TYPE":"U","NORAD_CAT_ID":41853,"ELEMENT_SET_NO":999,"REV_AT_EPOCH":51805,"BSTAR":0.00030220777,"MEAN_MOTION_DOT":7.215e-5,"MEAN_MOTION_DDOT":0},{"OBJECT_NAME":"CORVUS BC2","OBJECT_ID":"2017-042X","EPOCH":"2026-04-25T21:48:02.746368","MEAN_MOTION":15.0595992,"ECCENTRICITY":0.00114223,"INCLINATION":97.4022,"RA_OF_ASC_NODE":279.3192,"ARG_OF_PERICENTER":293.772,"MEAN_ANOMALY":66.2309,"EPHEMERIS_TYPE":0,"CLASSIFICATION_TYPE":"U","NORAD_CAT_ID":42846,"ELEMENT_SET_NO":999,"REV_AT_EPOCH":47919,"BSTAR":0.00026422376,"MEAN_MOTION_DOT":3.793e-5,"MEAN_MOTION_DDOT":0},{"OBJECT_NAME":"CORVUS BC1","OBJECT_ID":"2017-042Y","EPOCH":"2026-04-25T17:01:47.392320","MEAN_MOTION":15.0612752,"ECCENTRICITY":0.00101817,"INCLINATION":97.4056,"RA_OF_ASC_NODE":279.9077,"ARG_OF_PERICENTER":267.3105,"MEAN_ANOMALY":92.6957,"EPHEMERIS_TYPE":0,"CLASSIFICATION_TYPE":"U","NORAD_CAT_ID":42847,"ELEMENT_SET_NO":999,"REV_AT_EPOCH":47919,"BSTAR":0.000183711,"MEAN_MOTION_DOT":2.63e-5,"MEAN_MOTION_DDOT":0},{"OBJECT_NAME":"MAKERSAT 0","OBJECT_ID":"2017-073D","EPOCH":"2026-04-25T15:08:14.080992","MEAN_MOTION":15.29789926,"ECCENTRICITY":0.01141784,"INCLINATION":97.4705,"RA_OF_ASC_NODE":357.8114,"ARG_OF_PERICENTER":99.6465,"MEAN_ANOMALY":261.7695,"EPHEMERIS_TYPE":0,"CLASSIFICATION_TYPE":"U","NORAD_CAT_ID":43016,"ELEMENT_SET_NO":999,"REV_AT_EPOCH":45842,"BSTAR":0.00062655955,"MEAN_MOTION_DOT":0.00022036,"MEAN_MOTION_DDOT":0},{"OBJECT_NAME":"SIRION PATHFINDER-2","OBJECT_ID":"2018-099B","EPOCH":"2026-04-25T17:09:29.636640","MEAN_MOTION":15.14050355,"ECCENTRICITY":0.00104608,"INCLINATION":97.4303,"RA_OF_ASC_NODE":166.0261,"ARG_OF_PERICENTER":118.0429,"MEAN_ANOMALY":242.1862,"EPHEMERIS_TYPE":0,"CLASSIFICATION_TYPE":"U","NORAD_CAT_ID":43759,"ELEMENT_SET_NO":999,"REV_AT_EPOCH":40468,"BSTAR":0.00025593481,"MEAN_MOTION_DOT":4.594e-5,"MEAN_MOTION_DDOT":0},{"OBJECT_NAME":"CORVUS BC4","OBJECT_ID":"2018-099K","EPOCH":"2026-04-25T15:37:41.964960","MEAN_MOTION":15.12056768,"ECCENTRICITY":0.0008653,"INCLINATION":97.4124,"RA_OF_ASC_NODE":160.173,"ARG_OF_PERICENTER":170.9764,"MEAN_ANOMALY":189.1624,"EPHEMERIS_TYPE":0,"CLASSIFICATION_TYPE":"U","NORAD_CAT_ID":43767,"ELEMENT_SET_NO":999,"REV_AT_EPOCH":40446,"BSTAR":0.000250779,"MEAN_MOTION_DOT":4.253e-5,"MEAN_MOTION_DDOT":0},{"OBJECT_NAME":"M2 PATHFINDER","OBJECT_ID":"2020-037E","EPOCH":"2026-04-25T18:32:52.770336","MEAN_MOTION":15.04440275,"ECCENTRICITY":0.0010867,"INCLINATION":97.8167,"RA_OF_ASC_NODE":306.419,"ARG_OF_PERICENTER":338.3578,"MEAN_ANOMALY":21.7187,"EPHEMERIS_TYPE":0,"CLASSIFICATION_TYPE":"U","NORAD_CAT_ID":45727,"ELEMENT_SET_NO":999,"REV_AT_EPOCH":31761,"BSTAR":0.00011046128,"MEAN_MOTION_DOT":1.481e-5,"MEAN_MOTION_DDOT":0},{"OBJECT_NAME":"NETSAT-4","OBJECT_ID":"2020-068U","EPOCH":"2026-04-25T17:22:54.523488","MEAN_MOTION":15.42089611,"ECCENTRICITY":0.00071549,"INCLINATION":97.8635,"RA_OF_ASC_NODE":119.8222,"ARG_OF_PERICENTER":134.9268,"MEAN_ANOMALY":225.2559,"EPHEMERIS_TYPE":0,"CLASSIFICATION_TYPE":"U","NORAD_CAT_ID":46504,"ELEMENT_SET_NO":999,"REV_AT_EPOCH":30768,"BSTAR":0.00039614884,"MEAN_MOTION_DOT":0.00016872,"MEAN_MOTION_DDOT":0}]
